[{"OBJECT_NAME":"SDA_1674","OBJECT_ID":"2025-230L","EPOCH":"2026-03-09T17:39:14.953536","MEAN_MOTION":13.85421025,"ECCENTRICITY":0.00045935,"INCLINATION":81.3001,"RA_OF_ASC_NODE":303.8213,"ARG_OF_PERICENTER":113.5479,"MEAN_ANOMALY":246.6161,"EPHEMERIS_TYPE":0,"CLASSIFICATION_TYPE":"U","NORAD_CAT_ID":65984,"ELEMENT_SET_NO":999,"REV_AT_EPOCH":2005,"BSTAR":0.00028416236,"MEAN_MOTION_DOT":3.35e-6,"MEAN_MOTION_DDOT":0},{"OBJECT_NAME":"METEOR 2-13","OBJECT_ID":"1985-119A","EPOCH":"2026-03-09T17:40:49.075968","MEAN_MOTION":13.85581773,"ECCENTRICITY":0.00168695,"INCLINATION":82.5403,"RA_OF_ASC_NODE":333.4086,"ARG_OF_PERICENTER":43.3327,"MEAN_ANOMALY":316.9157,"EPHEMERIS_TYPE":0,"CLASSIFICATION_TYPE":"U","NORAD_CAT_ID":16408,"ELEMENT_SET_NO":999,"REV_AT_EPOCH":3222,"BSTAR":8.1023388e-5,"MEAN_MOTION_DOT":1.08e-6,"MEAN_MOTION_DDOT":0}]
